[{"OBJECT_NAME":"ICEYE-X31","OBJECT_ID":"2023-174AJ","EPOCH":"2026-03-09T23:06:20.433600","MEAN_MOTION":15.30950809,"ECCENTRICITY":0.00015021,"INCLINATION":97.3851,"RA_OF_ASC_NODE":144.9524,"ARG_OF_PERICENTER":332.6589,"MEAN_ANOMALY":27.4572,"EPHEMERIS_TYPE":0,"CLASSIFICATION_TYPE":"U","NORAD_CAT_ID":58288,"ELEMENT_SET_NO":999,"REV_AT_EPOCH":12955,"BSTAR":0.00066288467,"MEAN_MOTION_DOT":0.00019777,"MEAN_MOTION_DDOT":0},{"OBJECT_NAME":"STARLINK-36043","OBJECT_ID":"2025-283Z","EPOCH":"2026-03-09T07:10:05.878560","MEAN_MOTION":15.30191817,"ECCENTRICITY":0.00011383,"INCLINATION":53.1604,"RA_OF_ASC_NODE":26.0249,"ARG_OF_PERICENTER":71.091,"MEAN_ANOMALY":289.0214,"EPHEMERIS_TYPE":0,"CLASSIFICATION_TYPE":"U","NORAD_CAT_ID":66901,"ELEMENT_SET_NO":999,"REV_AT_EPOCH":1578,"BSTAR":0.00094930961,"MEAN_MOTION_DOT":0.00027855,"MEAN_MOTION_DDOT":0}]
